{
 "generated_at": "2026-06-27T07:50:14Z",
 "sources": [
  {
   "name": "CelesTrak",
   "url": "https://celestrak.org/NORAD/elements/",
   "license": "frei verfügbar; Attribution. Ursprünglich USSPACECOM/Space-Track."
  },
  {
   "name": "GCAT (J. McDowell, planet4589.org)",
   "url": "https://planet4589.org/space/gcat/",
   "license": "CC-BY 4.0"
  }
 ],
 "satellites": [
  {
   "norad": 41335,
   "name": "SENTINEL-3A",
   "intl": "2016-011A",
   "group": "resource",
   "gcat": {
    "class": "C",
    "category": "IMG",
    "owner": "COPERN/ESA",
    "state": "I-EU"
   },
   "omm": {
    "OBJECT_NAME": "SENTINEL-3A",
    "OBJECT_ID": "2016-011A",
    "EPOCH": "2026-06-26T23:09:03.250944",
    "MEAN_MOTION": 14.26735132,
    "ECCENTRICITY": 0.00014379,
    "INCLINATION": 98.6246,
    "RA_OF_ASC_NODE": 245.2077,
    "ARG_OF_PERICENTER": 96.8765,
    "MEAN_ANOMALY": 263.2579,
    "EPHEMERIS_TYPE": 0,
    "CLASSIFICATION_TYPE": "U",
    "NORAD_CAT_ID": 41335,
    "ELEMENT_SET_NO": 999,
    "REV_AT_EPOCH": 53945,
    "BSTAR": 0.00005621261,
    "MEAN_MOTION_DOT": 9.2e-7,
    "MEAN_MOTION_DDOT": 0
   }
  },
  {
   "norad": 43437,
   "name": "SENTINEL-3B",
   "intl": "2018-039A",
   "group": "resource",
   "gcat": {
    "class": "C",
    "category": "IMG",
    "owner": "COPERN/ESA",
    "state": "I-EU"
   },
   "omm": {
    "OBJECT_NAME": "SENTINEL-3B",
    "OBJECT_ID": "2018-039A",
    "EPOCH": "2026-06-26T19:08:24.571104",
    "MEAN_MOTION": 14.26737293,
    "ECCENTRICITY": 0.00007559,
    "INCLINATION": 98.6246,
    "RA_OF_ASC_NODE": 245.1919,
    "ARG_OF_PERICENTER": 107.5886,
    "MEAN_ANOMALY": 252.5377,
    "EPHEMERIS_TYPE": 0,
    "CLASSIFICATION_TYPE": "U",
    "NORAD_CAT_ID": 43437,
    "ELEMENT_SET_NO": 999,
    "REV_AT_EPOCH": 42549,
    "BSTAR": 0.000058259461,
    "MEAN_MOTION_DOT": 9.7e-7,
    "MEAN_MOTION_DDOT": 0
   }
  },
  {
   "norad": 42969,
   "name": "SENTINEL-5P",
   "intl": "2017-064A",
   "group": "resource",
   "gcat": {
    "class": "C",
    "category": "IMG",
    "owner": "COPERN/ESA",
    "state": "I-EU"
   },
   "omm": {
    "OBJECT_NAME": "SENTINEL-5P",
    "OBJECT_ID": "2017-064A",
    "EPOCH": "2026-06-26T20:36:10.775520",
    "MEAN_MOTION": 14.19520489,
    "ECCENTRICITY": 0.00010191,
    "INCLINATION": 98.7926,
    "RA_OF_ASC_NODE": 119.921,
    "ARG_OF_PERICENTER": 90.0917,
    "MEAN_ANOMALY": 270.0376,
    "EPHEMERIS_TYPE": 0,
    "CLASSIFICATION_TYPE": "U",
    "NORAD_CAT_ID": 42969,
    "ELEMENT_SET_NO": 999,
    "REV_AT_EPOCH": 45093,
    "BSTAR": 0.000037999302,
    "MEAN_MOTION_DOT": 3.6e-7,
    "MEAN_MOTION_DDOT": 0
   }
  },
  {
   "norad": 46984,
   "name": "SENTINEL-6A",
   "intl": "2020-086A",
   "group": "resource",
   "gcat": {
    "class": "C",
    "category": "EOSCI",
    "owner": "COPERN/ESA",
    "state": "I-EU"
   },
   "omm": {
    "OBJECT_NAME": "SENTINEL-6A",
    "OBJECT_ID": "2020-086A",
    "EPOCH": "2026-06-26T22:09:11.638368",
    "MEAN_MOTION": 12.80929973,
    "ECCENTRICITY": 0.00078577,
    "INCLINATION": 66.0408,
    "RA_OF_ASC_NODE": 114.8313,
    "ARG_OF_PERICENTER": 270.0122,
    "MEAN_ANOMALY": 89.9993,
    "EPHEMERIS_TYPE": 0,
    "CLASSIFICATION_TYPE": "U",
    "NORAD_CAT_ID": 46984,
    "ELEMENT_SET_NO": 999,
    "REV_AT_EPOCH": 26157,
    "BSTAR": -0.00006486114,
    "MEAN_MOTION_DOT": -7.6e-7,
    "MEAN_MOTION_DDOT": 0
   }
  },
  {
   "norad": 66514,
   "name": "SENTINEL-6B",
   "intl": "2025-264A",
   "group": "resource",
   "gcat": {
    "class": "C",
    "category": "EOSCI",
    "owner": "COPERN/ESA",
    "state": "I-EU"
   },
   "omm": {
    "OBJECT_NAME": "SENTINEL-6B",
    "OBJECT_ID": "2025-264A",
    "EPOCH": "2026-06-26T22:09:41.699520",
    "MEAN_MOTION": 12.80929969,
    "ECCENTRICITY": 0.00079456,
    "INCLINATION": 66.0408,
    "RA_OF_ASC_NODE": 114.9566,
    "ARG_OF_PERICENTER": 268.96,
    "MEAN_ANOMALY": 91.0505,
    "EPHEMERIS_TYPE": 0,
    "CLASSIFICATION_TYPE": "U",
    "NORAD_CAT_ID": 66514,
    "ELEMENT_SET_NO": 999,
    "REV_AT_EPOCH": 2841,
    "BSTAR": -0.000074184233,
    "MEAN_MOTION_DOT": -7.8e-7,
    "MEAN_MOTION_DDOT": 0
   }
  },
  {
   "norad": 28220,
   "name": "SHIYAN-1 (SY-1)",
   "intl": "2004-012A",
   "group": "resource",
   "gcat": {
    "class": null,
    "category": null,
    "owner": null,
    "state": null
   },
   "omm": {
    "OBJECT_NAME": "SHIYAN-1 (SY-1)",
    "OBJECT_ID": "2004-012A",
    "EPOCH": "2026-06-26T21:41:29.621184",
    "MEAN_MOTION": 15.34000202,
    "ECCENTRICITY": 0.00047496,
    "INCLINATION": 97.8697,
    "RA_OF_ASC_NODE": 256.6044,
    "ARG_OF_PERICENTER": 357.495,
    "MEAN_ANOMALY": 2.6267,
    "EPHEMERIS_TYPE": 0,
    "CLASSIFICATION_TYPE": "U",
    "NORAD_CAT_ID": 28220,
    "ELEMENT_SET_NO": 999,
    "REV_AT_EPOCH": 21258,
    "BSTAR": 0.00045890606,
    "MEAN_MOTION_DOT": 0.00015027,
    "MEAN_MOTION_DDOT": 0
   }
  },
  {
   "norad": 28893,
   "name": "SINAH 1",
   "intl": "2005-043D",
   "group": "resource",
   "gcat": {
    "class": null,
    "category": null,
    "owner": null,
    "state": null
   },
   "omm": {
    "OBJECT_NAME": "SINAH 1",
    "OBJECT_ID": "2005-043D",
    "EPOCH": "2026-06-26T23:07:12.142272",
    "MEAN_MOTION": 14.6416387,
    "ECCENTRICITY": 0.00132848,
    "INCLINATION": 98.2871,
    "RA_OF_ASC_NODE": 312.3433,
    "ARG_OF_PERICENTER": 243.2268,
    "MEAN_ANOMALY": 116.7576,
    "EPHEMERIS_TYPE": 0,
    "CLASSIFICATION_TYPE": "U",
    "NORAD_CAT_ID": 28893,
    "ELEMENT_SET_NO": 999,
    "REV_AT_EPOCH": 10195,
    "BSTAR": 0.00007143633,
    "MEAN_MOTION_DOT": 0.00000326,
    "MEAN_MOTION_DDOT": 0
   }
  },
  {
   "norad": 39418,
   "name": "SKYSAT-A",
   "intl": "2013-066C",
   "group": "resource",
   "gcat": {
    "class": "B",
    "category": "IMG",
    "owner": "SKYBOX",
    "state": "US"
   },
   "omm": {
    "OBJECT_NAME": "SKYSAT-A",
    "OBJECT_ID": "2013-066C",
    "EPOCH": "2026-06-26T17:09:15.812640",
    "MEAN_MOTION": 15.13022639,
    "ECCENTRICITY": 0.00196357,
    "INCLINATION": 97.3811,
    "RA_OF_ASC_NODE": 226.8082,
    "ARG_OF_PERICENTER": 282.0342,
    "MEAN_ANOMALY": 77.8689,
    "EPHEMERIS_TYPE": 0,
    "CLASSIFICATION_TYPE": "U",
    "NORAD_CAT_ID": 39418,
    "ELEMENT_SET_NO": 999,
    "REV_AT_EPOCH": 68992,
    "BSTAR": 0.00015092847,
    "MEAN_MOTION_DOT": 0.00002613,
    "MEAN_MOTION_DDOT": 0
   }
  },
  {
   "norad": 40072,
   "name": "SKYSAT-B",
   "intl": "2014-037D",
   "group": "resource",
   "gcat": {
    "class": "B",
    "category": "IMG",
    "owner": "SKYBOX",
    "state": "US"
   },
   "omm": {
    "OBJECT_NAME": "SKYSAT-B",
    "OBJECT_ID": "2014-037D",
    "EPOCH": "2026-06-26T21:00:35.498304",
    "MEAN_MOTION": 14.88050737,
    "ECCENTRICITY": 0.00042682,
    "INCLINATION": 98.3842,
    "RA_OF_ASC_NODE": 137.3928,
    "ARG_OF_PERICENTER": 239.8141,
    "MEAN_ANOMALY": 120.2651,
    "EPHEMERIS_TYPE": 0,
    "CLASSIFICATION_TYPE": "U",
    "NORAD_CAT_ID": 40072,
    "ELEMENT_SET_NO": 999,
    "REV_AT_EPOCH": 64740,
    "BSTAR": 0.0001445754,
    "MEAN_MOTION_DOT": 0.00001267,
    "MEAN_MOTION_DDOT": 0
   }
  },
  {
   "norad": 41601,
   "name": "SKYSAT-C1",
   "intl": "2016-040C",
   "group": "resource",
   "gcat": {
    "class": "B",
    "category": "IMG",
    "owner": "TBELLA",
    "state": "US"
   },
   "omm": {
    "OBJECT_NAME": "SKYSAT-C1",
    "OBJECT_ID": "2016-040C",
    "EPOCH": "2026-06-26T00:13:04.045440",
    "MEAN_MOTION": 15.36441709,
    "ECCENTRICITY": 0.00026289,
    "INCLINATION": 96.9565,
    "RA_OF_ASC_NODE": 208.251,
    "ARG_OF_PERICENTER": 39.9712,
    "MEAN_ANOMALY": 320.1726,
    "EPHEMERIS_TYPE": 0,
    "CLASSIFICATION_TYPE": "U",
    "NORAD_CAT_ID": 41601,
    "ELEMENT_SET_NO": 999,
    "REV_AT_EPOCH": 55922,
    "BSTAR": 0.00029477632,
    "MEAN_MOTION_DOT": 0.00010408,
    "MEAN_MOTION_DDOT": 0
   }
  }
 ]
}
